OBJECT_NAME,OBJECT_ID,EPOCH,MEAN_MOTION,ECCENTRICITY,INCLINATION,RA_OF_ASC_NODE,ARG_OF_PERICENTER,MEAN_ANOMALY,EPHEMERIS_TYPE,CLASSIFICATION_TYPE,NORAD_CAT_ID,ELEMENT_SET_NO,REV_AT_EPOCH,BSTAR,MEAN_MOTION_DOT,MEAN_MOTION_DDOT
SL-16 R/B,1994-077B,2026-06-17T07:59:07.408896,14.15572187,.00029287,70.9809,142.8561,327.7854,32.3089,0,U,23405,999,63033,.78918868E-4,.107E-5,0
ARIANE 40+ R/B,1995-021B,2026-06-17T14:57:35.663616,14.39833579,.00064881,98.4412,238.6920,192.2713,296.4184,0,U,23561,999,63362,.79124021E-4,.205E-5,0
SL-16 R/B,1995-058B,2026-06-17T13:21:23.526720,14.15508737,.00137853,71.0220,330.5828,319.9985,40.0121,0,U,23705,999,58198,.16784432E-3,.281E-5,0
SL-16 R/B,1996-051B,2026-06-17T14:21:00.018432,14.12445986,.0015501,70.7641,323.7792,336.2693,23.7710,0,U,24298,999,53575,.83926808E-4,.106E-5,0
ORBVIEW 2 (SEASTAR),1997-037A,2026-06-17T10:30:57.903552,14.35553350,.00031983,98.8687,335.4641,115.6178,244.5338,0,U,24883,999,52278,.69581936E-4,.154E-5,0
SL-16 R/B,1998-043G,2026-06-17T12:04:41.022048,14.26068623,.00109539,98.8364,122.6652,85.5266,274.7164,0,U,25400,999,45321,.31403041E-4,.3E-6,0
SL-16 R/B,1998-045B,2026-06-17T12:26:32.696736,14.16203069,.00093685,71.0117,331.6329,241.2071,118.8112,0,U,25407,999,44123,-.96397125E-4,-.239E-5,0
ISS (ZARYA),1998-067A,2026-06-17T12:17:17.635488,15.49281356,.00046967,51.6331,298.4851,196.4176,163.6661,0,U,25544,999,57180,.191419E-3,.10215E-3,0
CZ-4B R/B,1999-025C,2026-06-17T03:20:44.177280,14.18283511,.00380618,98.6484,209.9791,59.8082,8.1081,0,U,25732,999,40226,.37079026E-4,.34E-6,0
OKEAN-O,1999-039A,2026-06-17T03:28:29.516448,14.80467206,.0001603,97.9317,226.9432,72.3552,287.7835,0,U,25860,999,44910,.70951967E-4,.491E-5,0
SL-16 R/B,1999-039B,2026-06-17T02:22:40.100736,14.81845031,.00134861,97.9838,226.9623,297.2059,62.7779,0,U,25861,999,45158,.54261212E-4,.375E-5,0
DELTA 2 R/B,1999-041E,2026-06-17T11:00:19.095840,14.12016533,.05008437,51.7654,262.7127,282.8187,71.7250,0,U,25876,999,37712,.11122115E-3,.455E-5,0
HELIOS 1B,1999-064A,2026-06-17T07:30:53.923968,14.88006711,.00024981,98.1615,73.4566,91.1071,269.0431,0,U,25977,999,70007,.12299187E-3,.107E-4,0
TERRA,1999-068A,2026-06-17T13:54:51.698592,14.61103398,.00016122,97.9456,218.1105,187.9869,308.7485,0,U,25994,999,40966,.73025002E-4,.315E-5,0
SL-16 R/B,2000-006B,2026-06-17T11:44:17.956608,14.15834043,.00155385,71.0020,247.9904,22.5832,337.5971,0,U,26070,999,36268,.14244074E-4,-.2E-6,0
TITAN 4B R/B,2000-047B,2026-06-17T14:09:45.123840,15.10199225,.00457582,67.9882,119.4391,286.7001,72.9129,0,U,26474,999,40799,.15143144E-3,.24E-4,0
ENVISAT,2002-009A,2026-06-17T11:12:57.390624,14.39064834,.00013501,98.3834,119.7795,88.6788,22.0937,0,U,27386,999,27352,.33767232E-4,.61E-6,0
IDEFIX & ARIANE 42P R/B,2002-021B,2026-06-17T09:49:18.198624,14.31082156,.00105883,98.5943,105.8900,253.1806,106.8216,0,U,27422,999,25828,.76978714E-4,.159E-5,0
AQUA,2002-022A,2026-06-17T14:24:34.221312,14.62158570,.00010898,98.4277,137.8914,53.4593,1.2304,0,U,27424,999,28333,.1266302E-3,.588E-5,0
CZ-4B R/B,2002-024C,2026-06-17T04:05:24.287136,14.14564431,.00512044,98.8700,220.9907,100.2995,324.9914,0,U,27432,999,24330,.37449561E-4,.29E-6,0
MIDORI II (ADEOS-II),2002-056A,2026-06-17T11:42:49.526208,14.29349697,.00022125,98.7878,127.7504,76.8845,283.2583,0,U,27597,999,22455,.91538339E-4,.188E-5,0
H-2A R/B,2002-056E,2026-06-17T12:14:21.348384,14.33822122,.00691923,98.3312,125.1726,223.5924,247.3658,0,U,27601,999,22841,.64902744E-4,.143E-5,0
CZ-4B R/B,2003-049C,2026-06-17T12:09:03.471552,14.55100318,.0046953,98.6896,167.3655,287.6003,72.0068,0,U,28059,999,20111,.60907701E-4,.214E-5,0
CZ-2C R/B,2004-012C,2026-06-17T03:50:37.666752,15.78982321,.0009344,97.7075,243.8198,283.2955,76.7268,0,U,28222,999,21989,.46193655E-3,.82298E-3,0
SL-16 R/B,2004-021B,2026-06-17T00:28:35.879808,14.14608401,.00072763,71.0008,24.0403,255.1788,104.8528,0,U,28353,999,13688,-.10447549E-3,-.249E-5,0
CZ-4B R/B,2004-035C,2026-06-17T14:09:56.452608,15.30631305,.0029836,97.3361,201.6592,336.5183,23.4694,0,U,28415,999,19518,.20524798E-3,.6081E-4,0
CZ-2C R/B,2004-046B,2026-06-17T14:41:35.009664,14.27026561,.01385066,98.1945,77.3665,219.0050,140.1080,0,U,28480,999,12275,.37297785E-4,.59E-6,0
ARIANE 5 R/B,2004-049H,2026-06-17T11:12:32.565312,14.85449367,.00844809,98.2720,340.7306,28.5326,332.0474,0,U,28499,999,16060,.61420488E-4,.499E-5,0
CZ-2D R/B,2005-024B,2026-06-17T14:26:38.631264,15.69592294,.00033853,97.3481,188.0507,53.3879,306.7694,0,U,28738,999,15540,.41566084E-3,.49136E-3,0
ALOS (DAICHI),2006-002A,2026-06-17T10:20:25.394208,14.70050847,.00014504,98.1323,123.9974,57.3793,302.7553,0,U,28931,999,8813,.14978839E-3,.849E-5,0
